[{"spaceTrack":{"CCSDS_OMM_VERS":"2.0","COMMENT":"GENERATED VIA SPACE-TRACK.ORG API","CREATION_DATE":"2021-10-26T06:56:12","ORIGINATOR":"18 SPCS","OBJECT_NAME":"STARLINK-1443","OBJECT_ID":"2020-035D","CENTER_NAME":"EARTH","REF_FRAME":"TEME","TIME_SYSTEM":"UTC","MEAN_ELEMENT_THEORY":"SGP4","EPOCH":"2021-10-26T02:43:20.510976","MEAN_MOTION":15.06391869,"ECCENTRICITY":0.0001161,"INCLINATION":53.0557,"RA_OF_ASC_NODE":29.4531,"ARG_OF_PERICENTER":91.4496,"MEAN_ANOMALY":268.6626,"EPHEMERIS_TYPE":0,"CLASSIFICATION_TYPE":"U","NORAD_CAT_ID":45660,"ELEMENT_SET_NO":999,"REV_AT_EPOCH":7783,"BSTAR":0.000051267,"MEAN_MOTION_DOT":0.00000482,"MEAN_MOTION_DDOT":0,"SEMIMAJOR_AXIS":6925.373,"PERIOD":95.593,"APOAPSIS":548.043,"PERIAPSIS":546.434,"OBJECT_TYPE":"PAYLOAD","RCS_SIZE":"LARGE","COUNTRY_CODE":"US","LAUNCH_DATE":"2020-06-04","SITE":"AFETR","DECAY_DATE":null,"DECAYED":0,"FILE":3184154,"GP_ID":188161076,"TLE_LINE0":"0 STARLINK-1443","TLE_LINE1":"1 45660U 20035D   21299.11343184  .00000482  00000-0  51267-4 0  9998","TLE_LINE2":"2 45660  53.0557  29.4531 0001161  91.4496 268.6626 15.06391869 77833"},"launch":"5eb87d45ffd86e000604b387","version":"v1.0","height_km":547.5671872267485,"latitude":22.384944341997244,"longitude":135.96403830293823,"velocity_kms":7.591599418918577,"id":"5eed7716096e5900069857c6"},{"spaceTrack":{"CCSDS_OMM_VERS":"2.0","COMMENT":"GENERATED VIA SPACE-TRACK.ORG API","CREATION_DATE":"2021-10-26T14:46:11","ORIGINATOR":"18 SPCS","OBJECT_NAME":"STARLINK-1444","OBJECT_ID":"2020-035E","CENTER_NAME":"EARTH","REF_FRAME":"TEME","TIME_SYSTEM":"UTC","MEAN_ELEMENT_THEORY":"SGP4","EPOCH":"2021-10-26T11:07:34.281408","MEAN_MOTION":15.06396834,"ECCENTRICITY":0.0001129,"INCLINATION":53.0568,"RA_OF_ASC_NODE":27.8782,"ARG_OF_PERICENTER":76.0303,"MEAN_ANOMALY":284.0811,"EPHEMERIS_TYPE":0,"CLASSIFICATION_TYPE":"U","NORAD_CAT_ID":45661,"ELEMENT_SET_NO":999,"REV_AT_EPOCH":7787,"BSTAR":0.000029933,"MEAN_MOTION_DOT":0.00000165,"MEAN_MOTION_DDOT":0,"SEMIMAJOR_AXIS":6925.358,"PERIOD":95.592,"APOAPSIS":548.005,"PERIAPSIS":546.441,"OBJECT_TYPE":"PAYLOAD","RCS_SIZE":"LARGE","COUNTRY_CODE":"US","LAUNCH_DATE":"2020-06-04","SITE":"AFETR","DECAY_DATE":null,"DECAYED":0,"FILE":3184739,"GP_ID":188173264,"TLE_LINE0":"0 STARLINK-1444","TLE_LINE1":"1 45661U 20035E   21299.46359122  .00000165  00000-0  29933-4 0  9999","TLE_LINE2":"2 45661  53.0568  27.8782 0001129  76.0303 284.0811 15.06396834 77875"},"launch":"5eb87d45ffd86e000604b387","version":"v1.0","height_km":564.9130040387417,"latitude":-49.483726890193005,"longitude":56.95619702885651,"velocity_kms":7.57819929941282,"id":"5eed7716096e5900069857c7"},{"spaceTrack":{"CCSDS_OMM_VERS":"2.0","COMMENT":"GENERATED VIA SPACE-TRACK.ORG API","CREATION_DATE":"2021-10-25T22:36:11","ORIGINATOR":"18 SPCS","OBJECT_NAME":"STARLINK-1360","OBJECT_ID":"2020-025BK","CENTER_NAME":"EARTH","REF_FRAME":"TEME","TIME_SYSTEM":"UTC","MEAN_ELEMENT_THEORY":"SGP4","EPOCH":"2021-10-25T14:03:00.173952","MEAN_MOTION":15.0639384,"ECCENTRICITY":0.0001456,"INCLINATION":53.0554,"RA_OF_ASC_NODE":41.8168,"ARG_OF_PERICENTER":96.9307,"MEAN_ANOMALY":263.1848,"EPHEMERIS_TYPE":0,"CLASSIFICATION_TYPE":"U","NORAD_CAT_ID":45588,"ELEMENT_SET_NO":999,"REV_AT_EPOCH":8433,"BSTAR":0.000021377,"MEAN_MOTION_DOT":3.7e-7,"MEAN_MOTION_DDOT":0,"SEMIMAJOR_AXIS":6925.367,"PERIOD":95.593,"APOAPSIS":548.241,"PERIAPSIS":546.224,"OBJECT_TYPE":"PAYLOAD","RCS_SIZE":"LARGE","COUNTRY_CODE":"US","LAUNCH_DATE":"2020-04-22","SITE":"AFETR","DECAY_DATE":null,"DECAYED":0,"FILE":3183628,"GP_ID":188149284,"TLE_LINE0":"0 STARLINK-1360","TLE_LINE1":"1 45588U 20025BK  21298.58541868  .00000037  00000-0  21377-4 0  9990","TLE_LINE2":"2 45588  53.0554  41.8168 0001456  96.9307 263.1848 15.06393840 84331"},"launch":"5eb87d44ffd86e000604b386","version":"v1.0","height_km":547.2875968427134,"latitude":10.900230127909907,"longitude":136.2765201208846,"velocity_kms":7.590488468865971,"id":"5eed7716096e5900069857c8"},{"spaceTrack":{"CCSDS_OMM_VERS":"2.0","COMMENT":"GENERATED VIA SPACE-TRACK.ORG API","CREATION_DATE":"2020-07-14T14:56:08","ORIGINATOR":"18 SPCS","OBJECT_NAME":"STARLINK-1440","OBJECT_ID":"2020-035A","CENTER_NAME":"EARTH","REF_FRAME":"TEME","TIME_SYSTEM":"UTC","MEAN_ELEMENT_THEORY":"SGP4","EPOCH":"2020-07-14T14:23:37.542912","MEAN_MOTION":16.46735707,"ECCENTRICITY":0.0028054,"INCLINATION":53.0001,"RA_OF_ASC_NODE":319.7129,"ARG_OF_PERICENTER":181.2741,"MEAN_ANOMALY":293.9291,"EPHEMERIS_TYPE":0,"CLASSIFICATION_TYPE":"U","NORAD_CAT_ID":45657,"ELEMENT_SET_NO":999,"REV_AT_EPOCH":740,"BSTAR":0.00047903,"MEAN_MOTION_DOT":0.38210219,"MEAN_MOTION_DDOT":0.000012083,"SEMIMAJOR_AXIS":6526.082,"PERIOD":87.445,"APOAPSIS":166.255,"PERIAPSIS":129.639,"OBJECT_TYPE":"PAYLOAD","RCS_SIZE":"LARGE","COUNTRY_CODE":"US","LAUNCH_DATE":"2020-06-04","SITE":"AFETR","DECAY_DATE":"2020-07-14","DECAYED":1,"FILE":2785047,"GP_ID":157514755,"TLE_LINE0":"0 STARLINK-1440","TLE_LINE1":"1 45657U 20035A   20196.59974008  .38210219  12083-4  47903-3 0  9997","TLE_LINE2":"2 45657  53.0001 319.7129 0028054 181.2741 293.9291 16.46735707  7405"},"launch":"5eb87d45ffd86e000604b387","version":"v1.0","height_km":null,"latitude":null,"longitude":null,"velocity_kms":null,"id":"5eed7716096e5900069857c9"},{"spaceTrack":{"CCSDS_OMM_VERS":"2.0","COMMENT":"GENERATED VIA SPACE-TRACK.ORG API","CREATION_DATE":"2021-10-26T14:46:11","ORIGINATOR":"18 SPCS","OBJECT_NAME":"STARLINK-1442","OBJECT_ID":"2020-035C","CENTER_NAME":"EARTH","REF_FRAME":"TEME","TIME_SYSTEM":"UTC","MEAN_ELEMENT_THEORY":"SGP4","EPOCH":"2021-10-26T10:35:44.033568","MEAN_MOTION":15.06409025,"ECCENTRICITY":0.0001171,"INCLINATION":53.0565,"RA_OF_ASC_NODE":27.9684,"ARG_OF_PERICENTER":89.1668,"MEAN_ANOMALY":270.9455,"EPHEMERIS_TYPE":0,"CLASSIFICATION_TYPE":"U","NORAD_CAT_ID":45659,"ELEMENT_SET_NO":999,"REV_AT_EPOCH":7788,"BSTAR":0.000077711,"MEAN_MOTION_DOT":0.00000877,"MEAN_MOTION_DDOT":0,"SEMIMAJOR_AXIS":6925.321,"PERIOD":95.592,"APOAPSIS":547.997,"PERIAPSIS":546.375,"OBJECT_TYPE":"PAYLOAD","RCS_SIZE":"LARGE","COUNTRY_CODE":"US","LAUNCH_DATE":"2020-06-04","SITE":"AFETR","DECAY_DATE":null,"DECAYED":0,"FILE":3184741,"GP_ID":188173283,"TLE_LINE0":"0 STARLINK-1442","TLE_LINE1":"1 45659U 20035C   21299.44148187  .00000877  00000-0  77711-4 0  9998","TLE_LINE2":"2 45659  53.0565  27.9684 0001171  89.1668 270.9455 15.06409025 77883"},"launch":"5eb87d45ffd86e000604b387","version":"v1.0","height_km":549.5353374928773,"latitude":36.954894688694935,"longitude":152.23697375826498,"velocity_kms":7.592217697381619,"id":"5eed7716096e5900069857ca"},{"spaceTrack":{"CCSDS_OMM_VERS":"2.0","COMMENT":"GENERATED VIA SPACE-TRACK.ORG API","CREATION_DATE":"2021-10-25T22:16:11","ORIGINATOR":"18 SPCS","OBJECT_NAME":"STARLINK-1364","OBJECT_ID":"2020-025BL","CENTER_NAME":"EARTH","REF_FRAME":"TEME","TIME_SYSTEM":"UTC","MEAN_ELEMENT_THEORY":"SGP4","EPOCH":"2021-10-25T13:57:41.721696","MEAN_MOTION":15.06402976,"ECCENTRICITY":0.0001118,"INCLINATION":53.0559,"RA_OF_ASC_NODE":41.8301,"ARG_OF_PERICENTER":80.6541,"MEAN_ANOMALY":279.4574,"EPHEMERIS_TYPE":0,"CLASSIFICATION_TYPE":"U","NORAD_CAT_ID":45589,"ELEMENT_SET_NO":999,"REV_AT_EPOCH":8433,"BSTAR":0.000018382,"MEAN_MOTION_DOT":-8e-8,"MEAN_MOTION_DDOT":0,"SEMIMAJOR_AXIS":6925.339,"PERIOD":95.592,"APOAPSIS":547.979,"PERIAPSIS":546.43,"OBJECT_TYPE":"PAYLOAD","RCS_SIZE":"LARGE","COUNTRY_CODE":"US","LAUNCH_DATE":"2020-04-22","SITE":"AFETR","DECAY_DATE":null,"DECAYED":0,"FILE":3183504,"GP_ID":188146316,"TLE_LINE0":"0 STARLINK-1364","TLE_LINE1":"1 45589U 20025BL  21298.58173289 -.00000008  00000-0  18382-4 0  9990","TLE_LINE2":"2 45589  53.0559  41.8301 0001118  80.6541 279.4574 15.06402976 84338"},"launch":"5eb87d44ffd86e000604b386","version":"v1.0","height_km":547.8653859005544,"latitude":26.427627347556008,"longitude":149.81344345434744,"velocity_kms":7.591941375701047,"id":"5eed7716096e5900069857cb"},{"spaceTrack":{"CCSDS_OMM_VERS":"2.0","COMMENT":"GENERATED VIA SPACE-TRACK.ORG API","CREATION_DATE":"2021-10-26T14:46:11","ORIGINATOR":"18 SPCS","OBJECT_NAME":"STARLINK-1457","OBJECT_ID":"2020-035T","CENTER_NAME":"EARTH","REF_FRAME":"TEME","TIME_SYSTEM":"UTC","MEAN_ELEMENT_THEORY":"SGP4","EPOCH":"2021-10-26T10:19:47.842176","MEAN_MOTION":15.06412064,"ECCENTRICITY":0.0001262,"INCLINATION":53.0558,"RA_OF_ASC_NODE":28.0195,"ARG_OF_PERICENTER":93.2093,"MEAN_ANOMALY":266.904,"EPHEMERIS_TYPE":0,"CLASSIFICATION_TYPE":"U","NORAD_CAT_ID":45674,"ELEMENT_SET_NO":999,"REV_AT_EPOCH":7789,"BSTAR":0.000070712,"MEAN_MOTION_DOT":0.00000772,"MEAN_MOTION_DDOT":0,"SEMIMAJOR_AXIS":6925.312,"PERIOD":95.591,"APOAPSIS":548.051,"PERIAPSIS":546.303,"OBJECT_TYPE":"PAYLOAD","RCS_SIZE":"LARGE","COUNTRY_CODE":"US","LAUNCH_DATE":"2020-06-04","SITE":"AFETR","DECAY_DATE":null,"DECAYED":0,"FILE":3184757,"GP_ID":188173294,"TLE_LINE0":"0 STARLINK-1457","TLE_LINE1":"1 45674U 20035T   21299.43041484  .00000772  00000-0  70712-4 0  9994","TLE_LINE2":"2 45674  53.0558  28.0195 0001262  93.2093 266.9040 15.06412064 77893"},"launch":"5eb87d45ffd86e000604b387","version":"v1.0","height_km":552.0146067939249,"latitude":49.35980583770062,"longitude":-122.61892042248047,"velocity_kms":7.59227654595006,"id":"5eed7716096e5900069857cc"}]